IRIDIUM 112             
1 41925U 17003J   24016.28271047  .00000203  00000+0  65379-4 0  9994
2 41925  86.3958  97.3174 0002271  95.6201 264.5254 14.34217824366726
IRIDIUM 111             
1 41926U 17003K   24015.71187810  .00000087  00000+0  23951-4 0  9996
2 41926  86.3960  97.6075 0002294  88.8903 271.2556 14.34217454366629
IRIDIUM 113             
1 42803U 17039A   24016.38952539 -.00000068  00000+0 -31244-4 0  9997
2 42803  86.3995 331.0730 0002382  82.8594 277.2872 14.34217920344657
IRIDIUM 123             
1 42804U 17039B   24016.50077504 -.00000146  00000+0 -59295-4 0  9995
2 42804  86.3973   2.5142 0002266  87.3715 272.7740 14.34217209343436
IRIDIUM 120             
1 42805U 17039C   24016.38317940  .00000345  00000+0  11612-3 0  9992
2 42805  86.3985 330.9724 0002156  85.1316 275.0126 14.34220651344648
IRIDIUM 115             
1 42806U 17039D   24016.39841589  .00000882  00000+0  25616-3 0  9990
2 42806  86.4524 330.9681 0002399  83.5282 276.6192 14.43297468346938
IRIDIUM 118             
1 42807U 17039E   24016.46271801  .00000255  00000+0  83965-4 0  9999
2 42807  86.3978   2.5317 0002181  84.8120 275.3325 14.34218663343428
IRIDIUM 117             
1 42808U 17039F   24016.55150686  .00000196  00000+0  62975-4 0  9999
2 42808  86.3979   2.4606 0002250  86.0455 274.0998 14.34216002343463
